{"type": "FeatureCollection", "features": [{"type": "Feature", "properties": {"norad_id": 32275, "name": "COSMOS 2433 (720)", "group": "glo-ops", "lat": -59.23686339546142, "lon": -168.224311685455, "alt_km": 19122.196556017683, "timestamp": "2025-12-07T18:50:16.976719+00:00", "meta": {"OBJECT_NAME": "COSMOS 2433 (720)", "OBJECT_ID": "2007-052A", "EPOCH": "2025-12-06T23:44:11.537952", "MEAN_MOTION": 2.13103921, "ECCENTRICITY": 0.00054556, "INCLINATION": 65.6864, "RA_OF_ASC_NODE": 322.3989, "ARG_OF_PERICENTER": 253.5069, "MEAN_ANOMALY": 106.429, "EPHEMERIS_TYPE": 0, "CLASSIFICATION_TYPE": "U", "NORAD_CAT_ID": 32275, "ELEMENT_SET_NO": 999, "REV_AT_EPOCH": 14096, "BSTAR": 0, "MEAN_MOTION_DOT": -5e-07, "MEAN_MOTION_DDOT": 0}, "tle": {"line1": "1 32275U 07052A   25340.98902243 -.00000050  00000+0  00000+0 0  9998", "line2": "2 32275  65.6864 322.3989 0005455 253.5069 106.4290  2.13103921140965"}}, "geometry": {"type": "Point", "coordinates": [-168.224311685455, -59.23686339546142]}}, {"type": "Feature", "properties": {"norad_id": 32276, "name": "COSMOS 2432 (719)", "group": "glo-ops", "lat": -13.599172949641055, "lon": 148.7581136807846, "alt_km": 19145.20957903153, "timestamp": "2025-12-07T18:50:16.976742+00:00", "meta": {"OBJECT_NAME": "COSMOS 2432 (719)", "OBJECT_ID": "2007-052B", "EPOCH": "2025-12-07T02:45:37.162080", "MEAN_MOTION": 2.13103072, "ECCENTRICITY": 0.00112789, "INCLINATION": 65.7022, "RA_OF_ASC_NODE": 322.5187, "ARG_OF_PERICENTER": 312.1761, "MEAN_ANOMALY": 88.8989, "EPHEMERIS_TYPE": 0, "CLASSIFICATION_TYPE": "U", "NORAD_CAT_ID": 32276, "ELEMENT_SET_NO": 999, "REV_AT_EPOCH": 14099, "BSTAR": 0, "MEAN_MOTION_DOT": -5e-07, "MEAN_MOTION_DDOT": 0}, "tle": {"line1": "1 32276U 07052B   25341.11501345 -.00000050  00000+0  00000+0 0  9993", "line2": "2 32276  65.7022 322.5187 0011278 312.1761  88.8989  2.13103072140994"}}, "geometry": {"type": "Point", "coordinates": [148.7581136807846, -13.599172949641055]}}, {"type": "Feature", "properties": {"norad_id": 32393, "name": "COSMOS 2434 (721)", "group": "glo-ops", "lat": 34.380840591973545, "lon": -0.8529157271549077, "alt_km": 19122.178459540846, "timestamp": "2025-12-07T18:50:16.976758+00:00", "meta": {"OBJECT_NAME": "COSMOS 2434 (721)", "OBJECT_ID": "2007-065A", "EPOCH": "2025-12-05T10:54:52.087392", "MEAN_MOTION": 2.1310119, "ECCENTRICITY": 0.00044378, "INCLINATION": 64.3147, "RA_OF_ASC_NODE": 198.4493, "ARG_OF_PERICENTER": 70.9033, "MEAN_ANOMALY": 82.6626, "EPHEMERIS_TYPE": 0, "CLASSIFICATION_TYPE": "U", "NORAD_CAT_ID": 32393, "ELEMENT_SET_NO": 999, "REV_AT_EPOCH": 13964, "BSTAR": 0, "MEAN_MOTION_DOT": 8.7e-07, "MEAN_MOTION_DDOT": 0}, "tle": {"line1": "1 32393U 07065A   25339.45476953  .00000087  00000+0  00000+0 0  9996", "line2": "2 32393  64.3147 198.4493 0004437  70.9033  82.6626  2.13101190139646"}}, "geometry": {"type": "Point", "coordinates": [-0.8529157271549077, 34.380840591973545]}}, {"type": "Feature", "properties": {"norad_id": 32395, "name": "COSMOS 2436 (723)", "group": "glo-ops", "lat": -64.01620752136076, "lon": 117.64401038006599, "alt_km": 19140.64755690539, "timestamp": "2025-12-07T18:50:16.976771+00:00", "meta": {"OBJECT_NAME": "COSMOS 2436 (723)", "OBJECT_ID": "2007-065C", "EPOCH": "2025-12-07T03:33:41.330592", "MEAN_MOTION": 2.13100006, "ECCENTRICITY": 0.00177394, "INCLINATION": 64.3236, "RA_OF_ASC_NODE": 198.4623, "ARG_OF_PERICENTER": 9.1382, "MEAN_ANOMALY": 136.8175, "EPHEMERIS_TYPE": 0, "CLASSIFICATION_TYPE": "U", "NORAD_CAT_ID": 32395, "ELEMENT_SET_NO": 999, "REV_AT_EPOCH": 13963, "BSTAR": 0, "MEAN_MOTION_DOT": 6.2e-07, "MEAN_MOTION_DDOT": 0}, "tle": {"line1": "1 32395U 07065C   25341.14839503  .00000062  00000+0  00000+0 0  9994", "line2": "2 32395  64.3236 198.4623 0017739   9.1382 136.8175  2.13100006139637"}}, "geometry": {"type": "Point", "coordinates": [117.64401038006599, -64.01620752136076]}}, {"type": "Feature", "properties": {"norad_id": 36111, "name": "COSMOS 2456 (730)", "group": "glo-ops", "lat": -52.94342483316543, "lon": 39.21216634250273, "alt_km": 19128.07848742528, "timestamp": "2025-12-07T18:50:16.976783+00:00", "meta": {"OBJECT_NAME": "COSMOS 2456 (730)", "OBJECT_ID": "2009-070A", "EPOCH": "2025-12-06T21:12:24.583968", "MEAN_MOTION": 2.13103425, "ECCENTRICITY": 0.00030121, "INCLINATION": 64.8968, "RA_OF_ASC_NODE": 77.5382, "ARG_OF_PERICENTER": 297.7159, "MEAN_ANOMALY": 29.056, "EPHEMERIS_TYPE": 0, "CLASSIFICATION_TYPE": "U", "NORAD_CAT_ID": 36111, "ELEMENT_SET_NO": 999, "REV_AT_EPOCH": 12432, "BSTAR": 0, "MEAN_MOTION_DOT": -1.7e-07, "MEAN_MOTION_DDOT": 0}, "tle": {"line1": "1 36111U 09070A   25340.88361787 -.00000017  00000+0  00000+0 0  9997", "line2": "2 36111  64.8968  77.5382 0003012 297.7159  29.0560  2.13103425124328"}}, "geometry": {"type": "Point", "coordinates": [39.21216634250273, -52.94342483316543]}}, {"type": "Feature", "properties": {"norad_id": 36112, "name": "COSMOS 2457 (733)", "group": "glo-ops", "lat": 56.701470619222256, "lon": 122.84237687279446, "alt_km": 19123.820789598452, "timestamp": "2025-12-07T18:50:16.976795+00:00", "meta": {"OBJECT_NAME": "COSMOS 2457 (733)", "OBJECT_ID": "2009-070B", "EPOCH": "2025-12-07T05:33:13.940640", "MEAN_MOTION": 2.13100799, "ECCENTRICITY": 0.00047672, "INCLINATION": 64.8824, "RA_OF_ASC_NODE": 77.374, "ARG_OF_PERICENTER": 157.9691, "MEAN_ANOMALY": 204.8145, "EPHEMERIS_TYPE": 0, "CLASSIFICATION_TYPE": "U", "NORAD_CAT_ID": 36112, "ELEMENT_SET_NO": 999, "REV_AT_EPOCH": 12434, "BSTAR": 0, "MEAN_MOTION_DOT": -1.6e-07, "MEAN_MOTION_DDOT": 0}, "tle": {"line1": "1 36112U 09070B   25341.23141135 -.00000016  00000+0  00000+0 0  9990", "line2": "2 36112  64.8824  77.3740 0004767 157.9691 204.8145  2.13100799124347"}}, "geometry": {"type": "Point", "coordinates": [122.84237687279446, 56.701470619222256]}}, {"type": "Feature", "properties": {"norad_id": 36402, "name": "COSMOS 2460 (732)", "group": "glo-ops", "lat": 56.808629008984326, "lon": 5.031939973879705, "alt_km": 19129.57961240262, "timestamp": "2025-12-07T18:50:16.976806+00:00", "meta": {"OBJECT_NAME": "COSMOS 2460 (732)", "OBJECT_ID": "2010-007C", "EPOCH": "2025-12-05T09:49:39.891072", "MEAN_MOTION": 2.13106027, "ECCENTRICITY": 0.00027397, "INCLINATION": 65.5337, "RA_OF_ASC_NODE": 321.021, "ARG_OF_PERICENTER": 272.5603, "MEAN_ANOMALY": 131.8824, "EPHEMERIS_TYPE": 0, "CLASSIFICATION_TYPE": "U", "NORAD_CAT_ID": 36402, "ELEMENT_SET_NO": 999, "REV_AT_EPOCH": 12260, "BSTAR": 0, "MEAN_MOTION_DOT": -4.8e-07, "MEAN_MOTION_DDOT": 0}, "tle": {"line1": "1 36402U 10007C   25339.40948948 -.00000048  00000+0  00000+0 0  9992", "line2": "2 36402  65.5337 321.0210 0002739 272.5603 131.8824  2.13106027122601"}}, "geometry": {"type": "Point", "coordinates": [5.031939973879705, 56.808629008984326]}}, {"type": "Feature", "properties": {"norad_id": 37867, "name": "COSMOS 2476 (744)", "group": "glo-ops", "lat": -23.908763279099283, "lon": -88.82422391816793, "alt_km": 19078.84975577948, "timestamp": "2025-12-07T18:50:16.976818+00:00", "meta": {"OBJECT_NAME": "COSMOS 2476 (744)", "OBJECT_ID": "2011-064A", "EPOCH": "2025-12-02T19:57:36.313920", "MEAN_MOTION": 2.13101261, "ECCENTRICITY": 0.00239603, "INCLINATION": 65.1573, "RA_OF_ASC_NODE": 79.5068, "ARG_OF_PERICENTER": 233.4935, "MEAN_ANOMALY": 133.1658, "EPHEMERIS_TYPE": 0, "CLASSIFICATION_TYPE": "U", "NORAD_CAT_ID": 37867, "ELEMENT_SET_NO": 999, "REV_AT_EPOCH": 10958, "BSTAR": 0, "MEAN_MOTION_DOT": -2.2e-07, "MEAN_MOTION_DDOT": 0}, "tle": {"line1": "1 37867U 11064A   25336.83167030 -.00000022  00000+0  00000+0 0  9993", "line2": "2 37867  65.1573  79.5068 0023960 233.4935 133.1658  2.13101261109581"}}, "geometry": {"type": "Point", "coordinates": [-88.82422391816793, -23.908763279099283]}}, {"type": "Feature", "properties": {"norad_id": 37868, "name": "COSMOS 2477 (745)", "group": "glo-ops", "lat": 24.875515999561156, "lon": 91.80118277303376, "alt_km": 19175.259701252246, "timestamp": "2025-12-07T18:50:16.976829+00:00", "meta": {"OBJECT_NAME": "COSMOS 2477 (745)", "OBJECT_ID": "2011-064B", "EPOCH": "2025-12-07T06:13:41.447136", "MEAN_MOTION": 2.13102693, "ECCENTRICITY": 0.00211549, "INCLINATION": 65.1658, "RA_OF_ASC_NODE": 79.4345, "ARG_OF_PERICENTER": 234.4805, "MEAN_ANOMALY": 109.9504, "EPHEMERIS_TYPE": 0, "CLASSIFICATION_TYPE": "U", "NORAD_CAT_ID": 37868, "ELEMENT_SET_NO": 999, "REV_AT_EPOCH": 10966, "BSTAR": 0, "MEAN_MOTION_DOT": -1.3e-07, "MEAN_MOTION_DDOT": 0}, "tle": {"line1": "1 37868U 11064B   25341.25950749 -.00000013  00000+0  00000+0 0  9993", "line2": "2 37868  65.1658  79.4345 0021154 234.4805 109.9504  2.13102693109663"}}, "geometry": {"type": "Point", "coordinates": [91.80118277303376, 24.875515999561156]}}, {"type": "Feature", "properties": {"norad_id": 37869, "name": "COSMOS 2475 (743)", "group": "glo-ops", "lat": -14.700670342632153, "lon": 72.47857675286546, "alt_km": 19138.36578498446, "timestamp": "2025-12-07T18:50:16.976840+00:00", "meta": {"OBJECT_NAME": "COSMOS 2475 (743)", "OBJECT_ID": "2011-064C", "EPOCH": "2025-12-07T08:11:48.953184", "MEAN_MOTION": 2.13101364, "ECCENTRICITY": 0.00262336, "INCLINATION": 65.1729, "RA_OF_ASC_NODE": 79.4516, "ARG_OF_PERICENTER": 248.5614, "MEAN_ANOMALY": 114.7737, "EPHEMERIS_TYPE": 0, "CLASSIFICATION_TYPE": "U", "NORAD_CAT_ID": 37869, "ELEMENT_SET_NO": 999, "REV_AT_EPOCH": 10968, "BSTAR": 0, "MEAN_MOTION_DOT": -1.3e-07, "MEAN_MOTION_DDOT": 0}, "tle": {"line1": "1 37869U 11064C   25341.34153881 -.00000013  00000+0  00000+0 0  9996", "line2": "2 37869  65.1729  79.4516 0026233 248.5614 114.7737  2.13101364109688"}}, "geometry": {"type": "Point", "coordinates": [72.47857675286546, -14.700670342632153]}}]}